KUIPER-00008            
1 63724U 25088A   25199.58335648 -.00159316  00000+0 -96866-2 0  9996
2 63724  51.8905  74.6675 0011678  43.7424 334.6340 15.10671591 12938
KUIPER-00009            
1 63725U 25088B   25199.58335648  .00024839  00000+0  10021-2 0  9995
2 63725  51.8707  69.6592 0012162  66.8321 278.5320 15.24595444  5003
KUIPER-00010            
1 63726U 25088C   25199.35669948  .00008955  00000+0  26363-3 0  9992
2 63726  51.8655  70.3943 0009965  47.6471 312.5357 15.35785993 12598
KUIPER-00011            
1 63727U 25088D   25199.05562191  .00011959  00000+0  35260-3 0  9996
2 63727  51.8575  72.0707 0011722  53.9421 306.2649 15.35375957 12685
KUIPER-00012            
1 63728U 25088E   25199.37974158  .00010763  00000+0  31805-3 0  9995
2 63728  51.8571  70.4828 0011680  55.9723 304.2371 15.35420898 12683
KUIPER-00013            
1 63729U 25088F   25199.58335648  .00028798  00000+0  11961-2 0  9991
2 63729  51.8724  70.1619 0008781  38.9755  55.6362 15.23566184  4856
KUIPER-00014            
1 63730U 25088G   25199.58335648 -.01406379  00000+0 -64398-1 0  9992
2 63730  51.8698  71.0127 0011037  45.9706  11.8015 15.23270565  4937
KUIPER-00015            
1 63731U 25088H   25199.58335648  .00024055  00000+0  18932-2 0  9991
2 63731  51.8838  77.9749 0010486  42.8529 154.6685 15.00654321  4665
